SAR-LUPE 2              
1 31797U 07030A   26150.57862668  .00038392  00000+0  74985-3 0  9999
2 31797  98.1029 252.8729 0011267 165.9320 194.2244 15.47313786 54219
SAPPHIRE                
1 39088U 13009C   26150.59367558  .00000135  00000+0  62207-4 0  9992
2 39088  98.4255 330.4680 0010173 305.2049  54.8184 14.35235301694053
PRAETORIAN SDA_602      
1 65565U 25203A   26150.09960834  .00000100  00000+0  78816-4 0  9996
2 65565  81.3045  27.5244 0005006 239.1476 120.9188 13.84341266 36193
PRAETORIAN SDA_603      
1 65566U 25203B   26150.62666906  .00000263  00000+0  22608-3 0  9996
2 65566  81.3046  26.9409 0008576 239.0076 121.0239 13.83903238 36271
PRAETORIAN SDA_604      
1 65567U 25203C   26150.63550438  .00000153  00000+0  12882-3 0  9991
2 65567  81.3068  27.3174 0004595 246.4850 113.5823 13.83044899 36251
PRAETORIAN SDA_605      
1 65568U 25203D   26150.17179870  .00000126  00000+0  10405-3 0  9997
2 65568  81.3032  27.4265 0007298 235.8346 124.2119 13.83432461 36208
PRAETORIAN SDA_606      
1 65569U 25203E   26150.15399673  .00000129  00000+0  10688-3 0  9997
2 65569  81.3068  27.6569 0004930 235.4571 124.6120 13.83405301 36190
PRAETORIAN SDA_607      
1 65570U 25203F   26150.60712022  .00000171  00000+0  14248-3 0  9999
2 65570  81.3051  26.9283 0007979 238.5060 121.5318 13.84282713 36277
PRAETORIAN SDA_608      
1 65571U 25203G   26150.14476631  .00000137  00000+0  11310-3 0  9991
2 65571  81.3020  27.5111 0005093 246.8024 113.2596 13.83814801 36193
PRAETORIAN SDA_609      
1 65572U 25203H   26150.15548090  .00000274  00000+0  23452-3 0  9994
2 65572  81.3060  27.4880 0005980 238.2471 121.8103 13.84283233 36207
PRAETORIAN SDA_610      
1 65573U 25203J   26150.12497936  .00000097  00000+0  77173-4 0  9997
2 65573  81.3021  27.4882 0005719 243.0680 116.9893 13.83850442 36193
PRAETORIAN SDA_611      
1 65574U 25203K   26150.62498852  .00000305  00000+0  26695-3 0  9995
2 65574  81.3027  27.1774 0004665 250.0332 110.0322 13.83307623 36255
PRAETORIAN SDA_612      
1 65575U 25203L   26150.05859379  .00000239  00000+0  20052-3 0  9995
2 65575  81.3045  27.3315 0008368 239.7681 120.2648 13.85036333 36202
PRAETORIAN SDA_613      
1 65576U 25203M   26150.11832118  .00000120  00000+0  99672-4 0  9999
2 65576  81.3014  27.6280 0004791 239.0364 121.0321 13.82763609 36184
PRAETORIAN SDA_614      
1 65577U 25203N   26150.62239185  .00000122  00000+0  98276-4 0  9992
2 65577  81.3028  26.8818 0006239 235.7804 124.2762 13.84776609 36280
PRAETORIAN SDA_615      
1 65578U 25203P   26150.59493881  .00000269  00000+0  22994-3 0  9999
2 65578  81.3036  26.8599 0008110 236.6542 123.3839 13.84434266 36279
PRAETORIAN SDA_616      
1 65579U 25203Q   26150.62367511  .00000213  00000+0  18378-3 0  9994
2 65579  81.3075  27.3113 0004564 247.6627 112.4046 13.83265572 36254
PRAETORIAN SDA_617      
1 65580U 25203R   26150.64378807  .00000089  00000+0  70309-4 0  9992
2 65580  81.3051  27.1254 0006504 236.2825 123.7712 13.83148583 36262
PRAETORIAN SDA_618      
1 65581U 25203S   26150.63621356  .00000194  00000+0  16204-3 0  9992
2 65581  81.3029  26.7576 0008861 238.3803 121.6490 13.84772772 36283
PRAETORIAN SDA_619      
1 65582U 25203T   26150.58901745 -.00005972  00000+0 -54017-2 0  9994
2 65582  81.3057  27.0705 0007030 235.4340 124.6153 13.83885451 36898
PRAETORIAN SDA_620      
1 65583U 25203U   26150.10831563  .00000238  00000+0  20451-3 0  9997
2 65583  81.3045  27.5347 0006853 232.9577 127.0953 13.83616646 36195
PRAETORIAN SDA_621      
1 65584U 25203V   26150.59062350  .00000162  00000+0  13596-3 0  9999
2 65584  81.3034  27.0125 0006538 230.1625 129.8957 13.83799328 36268
PRAETORIAN SDA_601      
1 65585U 25203W   26150.62568812  .00000392  00000+0  34686-3 0  9996
2 65585  81.3057  27.2576 0004520 250.5950 109.4718 13.83270864 36259
